{
    "links": {
        "self": "http://www.neowsapp.com/rest/v1/neo/3840719?api_key=iIulBulltgU6a56xZRHN4H3l9WmuAYTsLGpBGhQ2"
    },
    "id": "3840719",
    "neo_reference_id": "3840719",
    "name": "(2019 FF1)",
    "designation": "2019 FF1",
    "nasa_jpl_url": "http://ssd.jpl.nasa.gov/sbdb.cgi?sstr=3840719",
    "absolute_magnitude_h": 25.5,
    "estimated_diameter": {
        "kilometers": {
            "estimated_diameter_min": 0.0211132445,
            "estimated_diameter_max": 0.0472106499
        },
        "meters": {
            "estimated_diameter_min": 21.113244479,
            "estimated_diameter_max": 47.2106498806
        },
        "miles": {
            "estimated_diameter_min": 0.0131191578,
            "estimated_diameter_max": 0.0293353287
        },
        "feet": {
            "estimated_diameter_min": 69.2691770164,
            "estimated_diameter_max": 154.8905885541
        }
    },
    "is_potentially_hazardous_asteroid": false,
    "close_approach_data": [
        {
            "close_approach_date": "2019-03-31",
            "close_approach_date_full": "2019-Mar-31 18:13",
            "epoch_date_close_approach": 1554055980000,
            "relative_velocity": {
                "kilometers_per_second": "8.4442521391",
                "kilometers_per_hour": "30399.3077008198",
                "miles_per_hour": "18888.9476099899"
            },
            "miss_distance": {
                "astronomical": "0.0479616681",
                "lunar": "18.6570888909",
                "kilometers": "7174963.389406947",
                "miles": "4458315.5153399886"
            },
            "orbiting_body": "Earth"
        }
    ],
    "orbital_data": {
        "orbit_id": "2",
        "orbit_determination_date": "2019-04-05 07:30:12",
        "first_observation_date": "2019-03-28",
        "last_observation_date": "2019-03-31",
        "data_arc_in_days": 3,
        "observations_used": 74,
        "orbit_uncertainty": "8",
        "minimum_orbit_intersection": ".0479312",
        "jupiter_tisserand_invariant": "3.205",
        "epoch_osculation": "2458572.5",
        "eccentricity": ".5901685033657044",
        "semi_major_axis": "2.484077700788573",
        "inclination": "5.468181373620865",
        "ascending_node_longitude": "167.3759337249202",
        "orbital_period": "1430.033433684633",
        "perihelion_distance": "1.018053281870061",
        "perihelion_argument": "36.44879184135613",
        "aphelion_distance": "3.950102119707085",
        "perihelion_time": "2458585.364914592551",
        "mean_anomaly": "356.7613559625769",
        "mean_motion": ".2517423659616278",
        "equinox": "J2000",
        "orbit_class": {
            "orbit_class_type": "AMO",
            "orbit_class_description": "Near-Earth asteroid orbits similar to that of 1221 Amor",
            "orbit_class_range": "1.017 AU < q (perihelion) < 1.3 AU"
        }
    },
    "is_sentry_object": false
}